OBJECT_NAME,OBJECT_ID,EPOCH,MEAN_MOTION,ECCENTRICITY,INCLINATION,RA_OF_ASC_NODE,ARG_OF_PERICENTER,MEAN_ANOMALY,EPHEMERIS_TYPE,CLASSIFICATION_TYPE,NORAD_CAT_ID,ELEMENT_SET_NO,REV_AT_EPOCH,BSTAR,MEAN_MOTION_DOT,MEAN_MOTION_DDOT
STARLINK-31914,2024-100T,2026-06-19T07:07:30.743040,15.27584416,.00007133,43.0031,271.8117,242.8832,117.1947,0,U,59902,999,11658,.64719196E-4,.152E-4,0
STARLINK-31850,2024-100U,2026-06-19T06:11:59.843328,15.27575083,.0001288,43.0022,271.5068,269.0761,90.9943,0,U,59903,999,11663,-.1608819E-5,-.306E-5,0
STARLINK-31924,2024-100V,2026-06-19T06:30:30.520512,15.27572018,.00015332,43.0029,271.6127,263.2182,96.8495,0,U,59904,999,11668,-.7621713E-5,-.472E-5,0
STARLINK-31898,2024-100W,2026-06-19T06:44:09.862080,15.27574767,.00005671,43.0012,268.2322,214.3501,145.7314,0,U,59905,999,11672,-.12743495E-4,-.612E-5,0
STARLINK-31861,2024-100X,2026-06-19T06:20:47.461344,15.27576381,.00013436,43.0018,264.6167,260.1563,99.9137,0,U,59906,999,11676,.46302201E-4,.1012E-4,0
STARLINK-31920,2024-100Y,2026-06-19T06:00:02.000160,15.57198424,.00216378,42.9901,223.5305,53.2866,196.0163,0,U,59907,999,582,.19699218E-2,.151127E-2,0
EARTHCARE,2024-101A,2026-06-18T22:01:41.996352,15.56991170,.0001583,97.0529,296.4852,105.4811,254.6620,0,U,59908,999,11683,.9604E-4,.6828E-4,0
TIANQI-25,2024-102A,2026-06-19T07:27:59.672448,13.99172126,.00125593,44.9769,252.4981,248.0357,111.9141,0,U,59909,999,10520,.98533225E-4,.15E-6,0
TIANQI-26,2024-102B,2026-06-19T07:01:02.057952,13.99185623,.00114251,44.9733,252.1724,251.1237,108.8357,0,U,59910,999,10520,.10413394E-3,.24E-6,0
TIANQI-27,2024-102C,2026-06-19T06:10:07.922496,13.99154554,.00082366,44.9779,252.2355,257.6631,102.3279,0,U,59911,999,10519,.10499105E-3,.25E-6,0
TIANQI-28,2024-102D,2026-06-19T06:37:24.433536,13.99170174,.00129339,44.9786,252.3797,256.8749,103.0640,0,U,59912,999,10519,.10734091E-3,.28E-6,0
PAKSAT-MM1,2024-104A,2026-06-18T23:22:12.399168,1.00268619,.00025075,0.0346,88.1832,343.6472,224.1221,0,U,59915,999,754,0,.147E-5,0
2024-105A,2024-105A,2026-06-19T07:39:26.280288,15.17091293,.00123577,97.5829,185.5595,214.3534,145.6901,0,U,59917,999,11335,.12353904E-3,.2382E-4,0
2024-105B,2024-105B,2026-06-19T07:48:59.749056,15.19168249,.00106009,97.5816,185.7874,230.8191,129.2102,0,U,59918,999,11337,.31277408E-3,.6516E-4,0
2024-105C,2024-105C,2026-05-25T06:13:37.407936,15.16509634,.0014365,97.5805,162.1295,266.5691,93.3899,0,U,59919,999,10968,.17586E-3,.3365E-4,0
2024-105D,2024-105D,2026-06-19T07:49:40.033056,15.22621591,.00110148,97.5816,189.2831,203.2698,156.8041,0,U,59920,999,11358,.20406706E-3,.4679E-4,0
2024-105E,2024-105E,2026-06-19T06:45:23.760000,15.10837546,.00314365,97.5787,186.8606,176.4704,183.6754,0,U,59921,999,11345,.12099422E-3,.1968E-4,0
STARLINK-31872,2024-106A,2026-06-19T04:48:46.091808,15.27587738,.00018962,43.0029,119.5802,259.6928,100.3710,0,U,59922,999,11608,.69297519E-4,.1645E-4,0
STARLINK-31972,2024-106B,2026-06-19T04:22:50.396736,15.27579543,.0001083,43.0033,119.4471,272.2591,87.8137,0,U,59923,999,11609,.8069733E-4,.1959E-4,0
STARLINK-31958,2024-106C,2026-06-19T04:32:49.743168,15.27574687,.00008674,43.0023,104.7953,276.0734,84.0019,0,U,59924,999,11621,.10411184E-4,.25E-6,0
STARLINK-31959,2024-106D,2026-06-19T05:13:17.189184,15.27565277,.00005817,43.0010,115.3089,254.8565,105.2222,0,U,59925,999,11609,-.92059615E-4,-.2793E-4,0
STARLINK-31957,2024-106E,2026-06-19T05:05:11.984064,15.27574792,.00009618,42.9992,118.8066,260.3676,99.7067,0,U,59926,999,11610,.14612622E-4,.14E-5,0
STARLINK-31968,2024-106F,2026-06-19T06:50:27.184704,15.27576275,.00008913,43.0009,118.4957,264.3770,95.6980,0,U,59927,999,11611,.14265878E-4,.131E-5,0
STARLINK-31970,2024-106G,2026-06-19T05:51:28.095552,15.27570555,.00009641,43.0047,119.0487,290.5500,69.5248,0,U,59928,999,11610,-.10077591E-3,-.3033E-4,0
STARLINK-31932,2024-106H,2026-06-19T04:51:19.515744,15.24708109,.00056257,42.9999,116.0261,152.6260,207.4888,0,U,59929,999,11608,-.53816524E-1,-.1245492E-1,0
STARLINK-31956,2024-106J,2026-06-19T05:42:11.867040,15.27580679,.00010523,43.0031,119.0050,277.2221,82.8512,0,U,59930,999,11605,.11584141E-4,.57E-6,0
STARLINK-31960,2024-106K,2026-06-19T05:20:00.503520,15.27567885,.00009839,43.0007,118.8790,282.4574,77.6167,0,U,59931,999,11605,-.95770359E-4,-.2895E-4,0
STARLINK-31432,2024-106L,2026-06-19T05:58:51.339648,15.27626315,.00020628,43.0025,119.0859,258.7562,101.3058,0,U,59932,999,11604,.45102879E-2,.126172E-2,0
STARLINK-31853,2024-106M,2026-06-19T05:47:45.149856,15.27578871,.00010191,43.0019,119.0324,277.0831,82.9905,0,U,59933,999,11605,.25541031E-4,.441E-5,0
STARLINK-31971,2024-106N,2026-06-19T06:30:58.806144,15.27538795,.00005012,43.0013,115.6420,241.2047,118.8754,0,U,59934,999,11597,.27511328E-3,.7307E-4,0
STARLINK-31962,2024-106Q,2026-06-19T06:19:13.001952,15.27588819,.00011774,43.0014,119.1898,279.8726,80.1993,0,U,59936,999,11605,.8164538E-5,-.37E-6,0
STARLINK-31879,2024-106R,2026-06-18T22:43:13.985760,15.27574714,.0001088,43.0016,121.1100,266.1988,93.8740,0,U,59937,999,11605,.21932E-4,.341E-5,0
STARLINK-31876,2024-106S,2026-06-19T04:02:31.180416,15.27556649,.00008209,42.9997,119.3390,288.3445,71.7317,0,U,59938,999,11605,-.15342499E-3,-.4478E-4,0
STARLINK-31955,2024-106T,2026-06-19T06:41:12.230592,15.27573447,.00011084,43.0011,118.4378,278.3458,81.7267,0,U,59939,999,11610,.22785345E-4,.365E-5,0
STARLINK-31946,2024-106U,2026-06-19T06:28:27.141312,15.27581445,.0001684,43.0048,119.2365,267.8853,92.1805,0,U,59940,999,10668,.4885038E-5,-.128E-5,0
STARLINK-31948,2024-106V,2026-06-19T06:19:54.041088,15.27567505,.00014217,43.0018,115.6302,273.6102,86.4587,0,U,59941,999,11609,-.9866894E-5,-.534E-5,0
STARLINK-31900,2024-106W,2026-06-19T06:44:54.295872,15.27575535,.00010196,43.0002,118.4666,270.7676,89.3059,0,U,59942,999,11606,.2239224E-4,.354E-5,0
STARLINK-31973,2024-106X,2026-06-19T04:33:56.888928,15.27578802,.00016419,43.0042,119.5045,270.6853,89.3811,0,U,59943,999,11604,.22018746E-4,.344E-5,0
STARLINK-31966,2024-106Y,2026-06-18T14:20:59.479296,15.27576341,.0001373,43.0013,122.7935,269.6156,90.4539,0,U,59944,999,11600,.18685E-4,.252E-5,0
STARLINK-11145 [DTC],2024-107A,2026-06-19T03:03:07.674624,15.69704281,.00011407,53.1594,111.5285,107.5250,252.5892,0,U,59945,999,11807,.8136976E-5,.397E-5,0
STARLINK-11113 [DTC],2024-107C,2026-06-19T03:10:02.709120,15.69707475,.00008326,53.1589,110.8133,67.5518,292.5588,0,U,59947,999,11808,.1594108E-5,-.395E-5,0
STARLINK-11123 [DTC],2024-107D,2026-06-19T02:48:59.818464,15.69703577,.00011382,53.1591,111.4600,86.6164,273.4984,0,U,59948,999,11813,.16320634E-4,.1388E-4,0
STARLINK-11138 [DTC],2024-107E,2026-06-19T02:20:43.941984,15.69739927,.00010645,53.1593,111.3229,97.2840,262.8299,0,U,59949,999,11813,-.4663662E-4,-.6241E-4,0
STARLINK-11130 [DTC],2024-107F,2026-06-19T02:41:56.109408,15.69704034,.00009728,53.1589,111.4295,76.7076,283.4050,0,U,59950,999,11807,.11949936E-4,.859E-5,0
STARLINK-11124 [DTC],2024-107H,2026-06-19T02:27:48.496896,15.69706382,.00011454,53.1594,111.3640,85.1700,274.9449,0,U,59952,999,11814,.9928076E-5,.614E-5,0
STARLINK-11133 [DTC],2024-107K,2026-06-19T02:06:37.303200,15.69703398,.00013709,53.1613,111.2642,89.0701,271.0474,0,U,59954,999,11807,.1224778E-5,-.441E-5,0
STARLINK-11144 [DTC],2024-107L,2026-06-19T01:59:33.043776,15.69703448,.00011022,53.1593,111.2360,110.8354,249.2783,0,U,59955,999,11813,-.529043E-6,-.653E-5,0
STARLINK-11134 [DTC],2024-107M,2026-06-19T06:27:32.121792,15.69706528,.00012942,53.1594,110.2575,67.6934,292.4221,0,U,59956,999,11803,.10465886E-4,.679E-5,0
STARLINK-11142 [DTC],2024-107N,2026-06-19T01:45:25.512480,15.69699805,.00010836,53.1588,111.1615,78.5122,281.6018,0,U,59957,999,11808,.9097796E-5,.513E-5,0
STARLINK-31995,2024-107P,2026-06-18T22:59:43.791936,15.34012112,.0001045,53.1621,314.9704,50.1322,309.9772,0,U,59958,999,11410,.16319E-2,.54482E-3,0
STARLINK-31989,2024-107Q,2026-06-19T03:08:06.864864,15.34408029,.00012336,53.1623,313.9194,77.7777,282.3364,0,U,59959,999,11533,.14336351E-3,.4472E-4,0
STARLINK-31856,2024-107R,2026-06-18T14:28:40.424160,15.34386593,.0001148,53.1618,316.3078,92.3978,267.7156,0,U,59960,999,11525,.77297E-4,.2235E-4,0
STARLINK-31993,2024-107S,2026-06-18T16:23:40.193376,15.34386882,.000103,53.1621,316.1007,75.0142,285.0975,0,U,59961,999,11520,.66408781E-4,.1867E-4,0
STARLINK-31980,2024-107T,2026-06-19T03:02:04.016832,15.34390302,.00012134,53.1629,313.8923,70.5553,289.5581,0,U,59962,999,11533,.1236987E-4,.42E-6,0
STARLINK-31991,2024-107U,2026-06-19T06:00:02.000160,15.34364944,.00014946,53.1597,313.5841,92.4392,91.1819,0,U,59963,999,587,.16890069E-2,.57061E-3,0
STARLINK-31979,2024-107V,2026-06-19T03:11:09.224160,15.34392753,.00010409,53.1616,313.9262,86.4659,273.6462,0,U,59964,999,11528,-.7537805E-5,-.631E-5,0
PREFIRE-1,2024-108A,2026-06-19T04:04:22.830816,15.23639167,.00102586,97.5323,324.9839,228.1491,131.8871,0,U,59965,999,11289,.17330556E-3,.4085E-4,0
2024-110A,2024-110A,2026-06-19T07:21:53.906688,15.13311138,.00074234,97.5694,261.9727,241.6996,118.3487,0,U,60012,999,11223,.27328029E-3,.4803E-4,0
2024-110B,2024-110B,2026-06-19T06:28:29.200224,15.22481436,.0009826,97.5727,266.2418,237.5795,122.4491,0,U,60013,999,11250,.27675798E-3,.6345E-4,0
2024-110C,2024-110C,2026-06-19T07:30:35.265024,14.98260900,.00124621,97.5463,245.5123,134.0525,226.1727,0,U,60014,999,10212,.45540136E-4,.485E-5,0
STARLINK-31978,2024-111A,2026-06-18T17:09:27.331488,15.31713166,.00010724,53.1620,326.1873,86.0111,274.1013,0,U,60016,999,11440,.39921245E-4,.874E-5,0
STARLINK-31987,2024-111B,2026-06-18T17:16:11.238528,15.31709953,.00010125,53.1624,326.2135,87.4396,272.6722,0,U,60017,999,11446,.18411897E-4,.207E-5,0
STARLINK-31984,2024-111C,2026-06-19T03:22:10.318944,15.30191140,.00011952,53.1623,324.5697,94.2627,265.8510,0,U,60018,999,11441,.6704358E-5,-.161E-5,0
STARLINK-31986,2024-111D,2026-06-19T03:08:31.089696,15.30174401,.00009138,53.1610,324.5102,106.6826,253.4275,0,U,60019,999,11457,-.1004103E-3,-.3329E-4,0
